#Pass ID: 20260130_180508_FENGYUN 3G
#Satellite: FENGYUN 3G
#Configuration: FENGYUN 3G
#Start time: 2026-01-30 18:05:13.160832

#LorettStation: 1.0.0 05.05.2024
#Station: Regia
#Location: 37.494653 lon 55.929028 lat
#TLE: 1 56232U 23055A   26027.33093889  .00044881  00000+0  67100-3 0  9994
#TLE: 2 56232  49.9947 352.2708 0004101  93.7831 266.3606 15.54500775158110

#Time	Az	El	Level	SNR
#Closed at: 2026-01-30 18:05:08.161681